[{"OBJECT_NAME":"KUIPER-00107","OBJECT_ID":"2025-171P","EPOCH":"2026-03-09T10:01:55.263072","MEAN_MOTION":14.79944344,"ECCENTRICITY":5.032e-5,"INCLINATION":51.898,"RA_OF_ASC_NODE":149.2906,"ARG_OF_PERICENTER":95.2186,"MEAN_ANOMALY":264.8834,"EPHEMERIS_TYPE":0,"CLASSIFICATION_TYPE":"U","NORAD_CAT_ID":65145,"ELEMENT_SET_NO":999,"REV_AT_EPOCH":3299,"BSTAR":-7.1654312e-5,"MEAN_MOTION_DOT":-7.67e-6,"MEAN_MOTION_DDOT":0},{"OBJECT_NAME":"PEGASUS DEB","OBJECT_ID":"1994-029AFL","EPOCH":"2026-02-24T04:13:22.463616","MEAN_MOTION":13.84237384,"ECCENTRICITY":0.05150588,"INCLINATION":81.5634,"RA_OF_ASC_NODE":226.3444,"ARG_OF_PERICENTER":247.4901,"MEAN_ANOMALY":107.0974,"EPHEMERIS_TYPE":0,"CLASSIFICATION_TYPE":"U","NORAD_CAT_ID":39913,"ELEMENT_SET_NO":999,"REV_AT_EPOCH":9996,"BSTAR":0.0023065412,"MEAN_MOTION_DOT":7.324e-5,"MEAN_MOTION_DDOT":0}]
